{"type": "FeatureCollection", "features": [ {"type": "Feature", "properties": {"norad_id": 66385, "name": "STARLINK-35659", "group": "last-30-days", "lat": -35.351440184879756, "lon": 159.52114597334486, "alt_km": 452.0501192304191, "timestamp": "2025-12-03T15:48:01.918501+00:00", "meta": {"OBJECT_NAME": "STARLINK-35659", "OBJECT_ID": "2025-257F", "EPOCH": "2025-12-03T08:00:01.999872", "MEAN_MOTION": 15.39551814, "ECCENTRICITY": 0.00013486, "INCLINATION": 53.1592, "RA_OF_ASC_NODE": 308.922, "ARG_OF_PERICENTER": 91.373, "MEAN_ANOMALY": 132.5363, "EPHEMERIS_TYPE": 0, "CLASSIFICATION_TYPE": "U", "NORAD_CAT_ID": 66385, "ELEMENT_SET_NO": 999, "REV_AT_EPOCH": 498, "BSTAR": 0.0022502041, "MEAN_MOTION_DOT": 0.00090478, "MEAN_MOTION_DDOT": 0}, "tle": {"line1": "1 66385U 25257F   25337.33335648  .00090478  00000+0  22502-2 0  9994", "line2": "2 66385  53.1592 308.9220 0001348  91.3730 132.5363 15.39551814  4984"}}, "geometry": {"type": "Point", "coordinates": [159.52114597334486, -35.351440184879756]}}, {"type": "Feature", "properties": {"norad_id": 66386, "name": "STARLINK-35651", "group": "last-30-days", "lat": -52.98317199823232, "lon": -136.60440034615544, "alt_km": 446.06715781803086, "timestamp": "2025-12-03T15:48:01.918511+00:00", "meta": {"OBJECT_NAME": "STARLINK-35651", "OBJECT_ID": "2025-257G", "EPOCH": "2025-12-03T08:00:01.999872", "MEAN_MOTION": 15.43431112, "ECCENTRICITY": 0.00014877, "INCLINATION": 53.159, "RA_OF_ASC_NODE": 308.8341, "ARG_OF_PERICENTER": 87.7559, "MEAN_ANOMALY": 179.933, "EPHEMERIS_TYPE": 0, "CLASSIFICATION_TYPE": "U", "NORAD_CAT_ID": 66386, "ELEMENT_SET_NO": 999, "REV_AT_EPOCH": 498, "BSTAR": -0.049535446, "MEAN_MOTION_DOT": -0.02005367, "MEAN_MOTION_DDOT": 0}, "tle": {"line1": "1 66386U 25257G   25337.33335648 -.02005367  00000+0 -49535-1 0  9996", "line2": "2 66386  53.1590 308.8341 0001487  87.7559 179.9330 15.43431112  4980"}}, "geometry": {"type": "Point", "coordinates": [-136.60440034615544, -52.98317199823232]}}, {"type": "Feature", "properties": {"norad_id": 66387, "name": "STARLINK-35661", "group": "last-30-days", "lat": -52.786816315615226, "lon": -133.55814373160638, "alt_km": 446.03947761178733, "timestamp": "2025-12-03T15:48:01.918520+00:00", "meta": {"OBJECT_NAME": "STARLINK-35661", "OBJECT_ID": "2025-257H", "EPOCH": "2025-12-03T08:00:01.999872", "MEAN_MOTION": 15.43423945, "ECCENTRICITY": 0.00013974, "INCLINATION": 53.1591, "RA_OF_ASC_NODE": 308.8313, "ARG_OF_PERICENTER": 93.4555, "MEAN_ANOMALY": 176.098, "EPHEMERIS_TYPE": 0, "CLASSIFICATION_TYPE": "U", "NORAD_CAT_ID": 66387, "ELEMENT_SET_NO": 999, "REV_AT_EPOCH": 498, "BSTAR": -0.049756923, "MEAN_MOTION_DOT": -0.02012868, "MEAN_MOTION_DDOT": 0}, "tle": {"line1": "1 66387U 25257H   25337.33335648 -.02012868  00000+0 -49757-1 0  9997", "line2": "2 66387  53.1591 308.8313 0001397  93.4555 176.0980 15.43423945  4985"}}, "geometry": {"type": "Point", "coordinates": [-133.55814373160638, -52.786816315615226]}}, {"type": "Feature", "properties": {"norad_id": 66388, "name": "STARLINK-35647", "group": "last-30-days", "lat": -48.40485537715557, "lon": -110.36775041694574, "alt_km": 437.43298489805966, "timestamp": "2025-12-03T15:48:01.918530+00:00", "meta": {"OBJECT_NAME": "STARLINK-35647", "OBJECT_ID": "2025-257J", "EPOCH": "2025-12-03T08:00:01.999872", "MEAN_MOTION": 15.46275114, "ECCENTRICITY": 0.00013002, "INCLINATION": 53.1591, "RA_OF_ASC_NODE": 308.807, "ARG_OF_PERICENTER": 95.7844, "MEAN_ANOMALY": 185.7653, "EPHEMERIS_TYPE": 0, "CLASSIFICATION_TYPE": "U", "NORAD_CAT_ID": 66388, "ELEMENT_SET_NO": 999, "REV_AT_EPOCH": 498, "BSTAR": -0.045347396, "MEAN_MOTION_DOT": -0.02022414, "MEAN_MOTION_DDOT": 0}, "tle": {"line1": "1 66388U 25257J   25337.33335648 -.02022414  00000+0 -45347-1 0  9997", "line2": "2 66388  53.1591 308.8070 0001300  95.7844 185.7653 15.46275114  4986"}}, "geometry": {"type": "Point", "coordinates": [-110.36775041694574, -48.40485537715557]}}, {"type": "Feature", "properties": {"norad_id": 66389, "name": "STARLINK-35694", "group": "last-30-days", "lat": -43.40916672247307, "lon": -97.93324850630127, "alt_km": 424.0717960815491, "timestamp": "2025-12-03T15:48:01.918539+00:00", "meta": {"OBJECT_NAME": "STARLINK-35694", "OBJECT_ID": "2025-257K", "EPOCH": "2025-12-03T06:45:58.202496", "MEAN_MOTION": 15.49293095, "ECCENTRICITY": 0.00017324, "INCLINATION": 53.159, "RA_OF_ASC_NODE": 309.0394, "ARG_OF_PERICENTER": 78.4994, "MEAN_ANOMALY": 281.621, "EPHEMERIS_TYPE": 0, "CLASSIFICATION_TYPE": "U", "NORAD_CAT_ID": 66389, "ELEMENT_SET_NO": 999, "REV_AT_EPOCH": 491, "BSTAR": 0.0010033925, "MEAN_MOTION_DOT": 0.00055725, "MEAN_MOTION_DDOT": 0}, "tle": {"line1": "1 66389U 25257K   25337.28192364  .00055725  00000+0  10034-2 0  9991", "line2": "2 66389  53.1590 309.0394 0001732  78.4994 281.6210 15.49293095  4910"}}, "geometry": {"type": "Point", "coordinates": [-97.93324850630127, -43.40916672247307]}}, {"type": "Feature", "properties": {"norad_id": 66390, "name": "STARLINK-35665", "group": "last-30-days", "lat": -19.5589171668648, "lon": -68.28173031003244, "alt_km": 421.91315980985655, "timestamp": "2025-12-03T15:48:01.918549+00:00", "meta": {"OBJECT_NAME": "STARLINK-35665", "OBJECT_ID": "2025-257L", "EPOCH": "2025-12-03T06:37:05.158560", "MEAN_MOTION": 15.49335019, "ECCENTRICITY": 0.00014679, "INCLINATION": 53.1587, "RA_OF_ASC_NODE": 308.9968, "ARG_OF_PERICENTER": 86.8381, "MEAN_ANOMALY": 273.2796, "EPHEMERIS_TYPE": 0, "CLASSIFICATION_TYPE": "U", "NORAD_CAT_ID": 66390, "ELEMENT_SET_NO": 999, "REV_AT_EPOCH": 501, "BSTAR": 0.0014965418, "MEAN_MOTION_DOT": 0.00083758, "MEAN_MOTION_DDOT": 0}, "tle": {"line1": "1 66390U 25257L   25337.27575415  .00083758  00000+0  14965-2 0  9998", "line2": "2 66390  53.1587 308.9968 0001467  86.8381 273.2796 15.49335019  5012"}}, "geometry": {"type": "Point", "coordinates": [-68.28173031003244, -19.5589171668648]}}, {"type": "Feature", "properties": {"norad_id": 66391, "name": "STARLINK-35656", "group": "last-30-days", "lat": -25.593212942419278, "lon": -73.8714377861484, "alt_km": 450.8231952675578, "timestamp": "2025-12-03T15:48:01.918558+00:00", "meta": {"OBJECT_NAME": "STARLINK-35656", "OBJECT_ID": "2025-257M", "EPOCH": "2025-12-03T08:00:01.999872", "MEAN_MOTION": 15.39548944, "ECCENTRICITY": 0.00017459, "INCLINATION": 53.1593, "RA_OF_ASC_NODE": 308.7055, "ARG_OF_PERICENTER": 60.6685, "MEAN_ANOMALY": 264.4327, "EPHEMERIS_TYPE": 0, "CLASSIFICATION_TYPE": "U", "NORAD_CAT_ID": 66391, "ELEMENT_SET_NO": 999, "REV_AT_EPOCH": 508, "BSTAR": 0.0030874688, "MEAN_MOTION_DOT": 0.00124847, "MEAN_MOTION_DDOT": 0}, "tle": {"line1": "1 66391U 25257M   25337.33335648  .00124847  00000+0  30875-2 0  9991", "line2": "2 66391  53.1593 308.7055 0001745  60.6685 264.4327 15.39548944  5082"}}, "geometry": {"type": "Point", "coordinates": [-73.8714377861484, -25.593212942419278]}}, {"type": "Feature", "properties": {"norad_id": 66392, "name": "STARLINK-35671", "group": "last-30-days", "lat": -46.653177634148946, "lon": -105.33624925551071, "alt_km": 438.893005248422, "timestamp": "2025-12-03T15:48:01.918570+00:00", "meta": {"OBJECT_NAME": "STARLINK-35671", "OBJECT_ID": "2025-257N", "EPOCH": "2025-12-03T08:00:01.999872", "MEAN_MOTION": 15.45763859, "ECCENTRICITY": 0.00013947, "INCLINATION": 53.1596, "RA_OF_ASC_NODE": 308.7966, "ARG_OF_PERICENTER": 94.0523, "MEAN_ANOMALY": 191.9265, "EPHEMERIS_TYPE": 0, "CLASSIFICATION_TYPE": "U", "NORAD_CAT_ID": 66392, "ELEMENT_SET_NO": 999, "REV_AT_EPOCH": 498, "BSTAR": -0.045868878, "MEAN_MOTION_DOT": -0.02011123, "MEAN_MOTION_DDOT": 0}, "tle": {"line1": "1 66392U 25257N   25337.33335648 -.02011123  00000+0 -45869-1 0  9996", "line2": "2 66392  53.1596 308.7966 0001394  94.0523 191.9265 15.45763859  4983"}}, "geometry": {"type": "Point", "coordinates": [-105.33624925551071, -46.653177634148946]}}, {"type": "Feature", "properties": {"norad_id": 66393, "name": "STARLINK-35652", "group": "last-30-days", "lat": -42.300425635561275, "lon": -95.78341925139405, "alt_km": 424.04908322287974, "timestamp": "2025-12-03T15:48:01.918580+00:00", "meta": {"OBJECT_NAME": "STARLINK-35652", "OBJECT_ID": "2025-257P", "EPOCH": "2025-12-03T06:45:29.700000", "MEAN_MOTION": 15.49339026, "ECCENTRICITY": 0.0001686, "INCLINATION": 53.1588, "RA_OF_ASC_NODE": 309.0372, "ARG_OF_PERICENTER": 112.5515, "MEAN_ANOMALY": 247.5673, "EPHEMERIS_TYPE": 0, "CLASSIFICATION_TYPE": "U", "NORAD_CAT_ID": 66393, "ELEMENT_SET_NO": 999, "REV_AT_EPOCH": 491, "BSTAR": 0.0017132809, "MEAN_MOTION_DOT": 0.0009612, "MEAN_MOTION_DDOT": 0}, "tle": {"line1": "1 66393U 25257P   25337.28159375  .00096120  00000+0  17133-2 0  9992", "line2": "2 66393  53.1588 309.0372 0001686 112.5515 247.5673 15.49339026  4914"}}, "geometry": {"type": "Point", "coordinates": [-95.78341925139405, -42.300425635561275]}}, {"type": "Feature", "properties": {"norad_id": 66394, "name": "STARLINK-35672", "group": "last-30-days", "lat": -39.994964302342275, "lon": -91.75035729481574, "alt_km": 423.64629012601927, "timestamp": "2025-12-03T15:48:01.918589+00:00", "meta": {"OBJECT_NAME": "STARLINK-35672", "OBJECT_ID": "2025-257Q", "EPOCH": "2025-12-03T06:44:30.391584", "MEAN_MOTION": 15.49337477, "ECCENTRICITY": 0.00015583, "INCLINATION": 53.1587, "RA_OF_ASC_NODE": 309.0321, "ARG_OF_PERICENTER": 87.1671, "MEAN_ANOMALY": 272.9516, "EPHEMERIS_TYPE": 0, "CLASSIFICATION_TYPE": "U", "NORAD_CAT_ID": 66394, "ELEMENT_SET_NO": 999, "REV_AT_EPOCH": 491, "BSTAR": 0.0017866612, "MEAN_MOTION_DOT": 0.00100305, "MEAN_MOTION_DDOT": 0}, "tle": {"line1": "1 66394U 25257Q   25337.28090731  .00100305  00000+0  17867-2 0  9998", "line2": "2 66394  53.1587 309.0321 0001558  87.1671 272.9516 15.49337477  4912"}}, "geometry": {"type": "Point", "coordinates": [-91.75035729481574, -39.994964302342275]}}]}